{"type": "FeatureCollection", "features": [ {"type": "Feature", "properties": {"norad_id": 66052, "name": "HRC MONOBLOCK CAMERA", "group": "stations", "lat": -36.45677812461637, "lon": -66.25381440518684, "alt_km": 404.8065539428808, "timestamp": "2025-12-25T11:37:43.168716+00:00", "meta": {"OBJECT_NAME": "HRC MONOBLOCK CAMERA", "OBJECT_ID": "1998-067XR", "EPOCH": "2025-12-24T22:18:27.885024", "MEAN_MOTION": 15.54975893, "ECCENTRICITY": 0.0002069, "INCLINATION": 51.6302, "RA_OF_ASC_NODE": 80.6909, "ARG_OF_PERICENTER": 244.0081, "MEAN_ANOMALY": 116.0697, "EPHEMERIS_TYPE": 0, "CLASSIFICATION_TYPE": "U", "NORAD_CAT_ID": 66052, "ELEMENT_SET_NO": 999, "REV_AT_EPOCH": 1073, "BSTAR": 0.00052683, "MEAN_MOTION_DOT": 0.00035651, "MEAN_MOTION_DDOT": 0}, "tle": {"line1": "1 66052U 98067XR  25358.92948941  .00035651  00000+0  52683-3 0  9994", "line2": "2 66052  51.6302  80.6909 0002069 244.0081 116.0697 15.54975893 10733"}}, "geometry": {"type": "Point", "coordinates": [-66.25381440518684, -36.45677812461637]}}, {"type": "Feature", "properties": {"norad_id": 66174, "name": "HTV-X1", "group": "stations", "lat": -49.70449175006185, "lon": -31.518104487624427, "alt_km": 420.2407432975979, "timestamp": "2025-12-25T11:37:43.168726+00:00", "meta": {"OBJECT_NAME": "HTV-X1", "OBJECT_ID": "2025-241A", "EPOCH": "2025-12-24T17:30:08.449344", "MEAN_MOTION": 15.49788781, "ECCENTRICITY": 0.00031932, "INCLINATION": 51.6317, "RA_OF_ASC_NODE": 83.1022, "ARG_OF_PERICENTER": 296.2044, "MEAN_ANOMALY": 63.8616, "EPHEMERIS_TYPE": 0, "CLASSIFICATION_TYPE": "U", "NORAD_CAT_ID": 66174, "ELEMENT_SET_NO": 999, "REV_AT_EPOCH": 51, "BSTAR": 0.00024880559, "MEAN_MOTION_DOT": 0.00013665, "MEAN_MOTION_DDOT": 0}, "tle": {"line1": "1 66174U 25241A   25358.72926446  .00013665  00000+0  24881-3 0  9997", "line2": "2 66174  51.6317  83.1022 0003193 296.2044  63.8616 15.49788781   512"}}, "geometry": {"type": "Point", "coordinates": [-31.518104487624427, -49.70449175006185]}}, {"type": "Feature", "properties": {"norad_id": 66515, "name": "SZ-21 MODULE", "group": "stations", "lat": -17.345168245181558, "lon": 138.96734351086965, "alt_km": 381.8704687200734, "timestamp": "2025-12-25T11:37:43.168736+00:00", "meta": {"OBJECT_NAME": "SZ-21 MODULE", "OBJECT_ID": "2025-246C", "EPOCH": "2025-12-24T13:16:51.562848", "MEAN_MOTION": 15.63097156, "ECCENTRICITY": 0.00047243, "INCLINATION": 41.4769, "RA_OF_ASC_NODE": 303.9494, "ARG_OF_PERICENTER": 323.7646, "MEAN_ANOMALY": 36.2873, "EPHEMERIS_TYPE": 0, "CLASSIFICATION_TYPE": "U", "NORAD_CAT_ID": 66515, "ELEMENT_SET_NO": 999, "REV_AT_EPOCH": 629, "BSTAR": 0.00031177301, "MEAN_MOTION_DOT": 0.0002901, "MEAN_MOTION_DDOT": 0}, "tle": {"line1": "1 66515U 25246C   25358.55337457  .00029010  00000+0  31177-3 0  9997", "line2": "2 66515  41.4769 303.9494 0004724 323.7646  36.2873 15.63097156  6295"}}, "geometry": {"type": "Point", "coordinates": [138.96734351086965, -17.345168245181558]}}, {"type": "Feature", "properties": {"norad_id": 66645, "name": "SHENZHOU-22", "group": "stations", "lat": 23.259352403807046, "lon": 90.17766675910563, "alt_km": 379.1806448185798, "timestamp": "2025-12-25T11:37:43.168746+00:00", "meta": {"OBJECT_NAME": "SHENZHOU-22", "OBJECT_ID": "2025-272A", "EPOCH": "2025-12-24T21:11:11.048064", "MEAN_MOTION": 15.59651715, "ECCENTRICITY": 0.00082343, "INCLINATION": 41.4683, "RA_OF_ASC_NODE": 302.9604, "ARG_OF_PERICENTER": 137.936, "MEAN_ANOMALY": 222.2112, "EPHEMERIS_TYPE": 0, "CLASSIFICATION_TYPE": "U", "NORAD_CAT_ID": 66645, "ELEMENT_SET_NO": 999, "REV_AT_EPOCH": 26583, "BSTAR": 0.00020600017, "MEAN_MOTION_DOT": 0.00016629, "MEAN_MOTION_DDOT": 0}, "tle": {"line1": "1 66645U 25272A   25358.88276676  .00016629  00000+0  20600-3 0  9992", "line2": "2 66645  41.4683 302.9604 0008234 137.9360 222.2112 15.59651715265836"}}, "geometry": {"type": "Point", "coordinates": [90.17766675910563, 23.259352403807046]}}, {"type": "Feature", "properties": {"norad_id": 66664, "name": "SOYUZ-MS 28", "group": "stations", "lat": -49.70440626853883, "lon": -31.518028388212162, "alt_km": 420.24072976813204, "timestamp": "2025-12-25T11:37:43.168772+00:00", "meta": {"OBJECT_NAME": "SOYUZ-MS 28", "OBJECT_ID": "2025-275A", "EPOCH": "2025-12-24T17:30:08.449344", "MEAN_MOTION": 15.49788781, "ECCENTRICITY": 0.0003193, "INCLINATION": 51.6316, "RA_OF_ASC_NODE": 83.1022, "ARG_OF_PERICENTER": 296.2044, "MEAN_ANOMALY": 63.8616, "EPHEMERIS_TYPE": 0, "CLASSIFICATION_TYPE": "U", "NORAD_CAT_ID": 66664, "ELEMENT_SET_NO": 999, "REV_AT_EPOCH": 430, "BSTAR": 0.00024881, "MEAN_MOTION_DOT": 0.00013665, "MEAN_MOTION_DDOT": 0}, "tle": {"line1": "1 66664U 25275A   25358.72926446  .00013665  00000+0  24881-3 0  9998", "line2": "2 66664  51.6316  83.1022 0003193 296.2044  63.8616 15.49788781  4306"}}, "geometry": {"type": "Point", "coordinates": [-31.518028388212162, -49.70440626853883]}}, {"type": "Feature", "properties": {"norad_id": 66906, "name": "1998-067XS", "group": "stations", "lat": -13.26914378890896, "lon": 68.41249129881437, "alt_km": 414.93125868576954, "timestamp": "2025-12-25T11:37:43.168786+00:00", "meta": {"OBJECT_NAME": "1998-067XS", "OBJECT_ID": "1998-067XS", "EPOCH": "2025-12-24T12:30:34.892352", "MEAN_MOTION": 15.51195693, "ECCENTRICITY": 0.00027903, "INCLINATION": 51.6318, "RA_OF_ASC_NODE": 83.9644, "ARG_OF_PERICENTER": 262.1551, "MEAN_ANOMALY": 97.9122, "EPHEMERIS_TYPE": 0, "CLASSIFICATION_TYPE": "U", "NORAD_CAT_ID": 66906, "ELEMENT_SET_NO": 999, "REV_AT_EPOCH": 344, "BSTAR": 0.00051725581, "MEAN_MOTION_DOT": 0.00030459, "MEAN_MOTION_DDOT": 0}, "tle": {"line1": "1 66906U 98067XS  25358.52123718  .00030459  00000+0  51726-3 0  9993", "line2": "2 66906  51.6318  83.9644 0002790 262.1551  97.9122 15.51195693  3443"}}, "geometry": {"type": "Point", "coordinates": [68.41249129881437, -13.26914378890896]}}, {"type": "Feature", "properties": {"norad_id": 66907, "name": "1998-067XT", "group": "stations", "lat": 42.13870643572564, "lon": 124.81651896298077, "alt_km": 403.3652062246538, "timestamp": "2025-12-25T11:37:43.168796+00:00", "meta": {"OBJECT_NAME": "1998-067XT", "OBJECT_ID": "1998-067XT", "EPOCH": "2025-12-24T10:39:56.166048", "MEAN_MOTION": 15.52879993, "ECCENTRICITY": 0.00038856, "INCLINATION": 51.6313, "RA_OF_ASC_NODE": 84.2012, "ARG_OF_PERICENTER": 298.2919, "MEAN_ANOMALY": 61.7678, "EPHEMERIS_TYPE": 0, "CLASSIFICATION_TYPE": "U", "NORAD_CAT_ID": 66907, "ELEMENT_SET_NO": 999, "REV_AT_EPOCH": 343, "BSTAR": 0.0010726177, "MEAN_MOTION_DOT": 0.00067981, "MEAN_MOTION_DDOT": 0}, "tle": {"line1": "1 66907U 98067XT  25358.44440007  .00067981  00000+0  10726-2 0  9992", "line2": "2 66907  51.6313  84.2012 0003885 298.2919  61.7678 15.52879993  3433"}}, "geometry": {"type": "Point", "coordinates": [124.81651896298077, 42.13870643572564]}}, {"type": "Feature", "properties": {"norad_id": 66908, "name": "1998-067XU", "group": "stations", "lat": 45.30723817390004, "lon": 132.21358986828645, "alt_km": 402.9028786128729, "timestamp": "2025-12-25T11:37:43.168806+00:00", "meta": {"OBJECT_NAME": "1998-067XU", "OBJECT_ID": "1998-067XU", "EPOCH": "2025-12-24T10:38:25.805472", "MEAN_MOTION": 15.52977314, "ECCENTRICITY": 0.00038638, "INCLINATION": 51.6323, "RA_OF_ASC_NODE": 84.1936, "ARG_OF_PERICENTER": 296.7785, "MEAN_ANOMALY": 63.2809, "EPHEMERIS_TYPE": 0, "CLASSIFICATION_TYPE": "U", "NORAD_CAT_ID": 66908, "ELEMENT_SET_NO": 999, "REV_AT_EPOCH": 343, "BSTAR": 0.0010585814, "MEAN_MOTION_DOT": 0.00067317, "MEAN_MOTION_DDOT": 0}, "tle": {"line1": "1 66908U 98067XU  25358.44335423  .00067317  00000+0  10586-2 0  9995", "line2": "2 66908  51.6323  84.1936 0003863 296.7785  63.2809 15.52977314  3438"}}, "geometry": {"type": "Point", "coordinates": [132.21358986828645, 45.30723817390004]}}, {"type": "Feature", "properties": {"norad_id": 66909, "name": "SILVERSAT", "group": "stations", "lat": 49.00430048948606, "lon": 144.70982009792755, "alt_km": 401.8745078524689, "timestamp": "2025-12-25T11:37:43.168817+00:00", "meta": {"OBJECT_NAME": "SILVERSAT", "OBJECT_ID": "1998-067XV", "EPOCH": "2025-12-24T12:08:54.950784", "MEAN_MOTION": 15.53202951, "ECCENTRICITY": 0.00038249, "INCLINATION": 51.631, "RA_OF_ASC_NODE": 83.8633, "ARG_OF_PERICENTER": 300.8028, "MEAN_ANOMALY": 59.2585, "EPHEMERIS_TYPE": 0, "CLASSIFICATION_TYPE": "U", "NORAD_CAT_ID": 66909, "ELEMENT_SET_NO": 999, "REV_AT_EPOCH": 344, "BSTAR": 0.0011617624, "MEAN_MOTION_DOT": 0.00074602, "MEAN_MOTION_DDOT": 0}, "tle": {"line1": "1 66909U 98067XV  25358.50619156  .00074602  00000+0  11618-2 0  9993", "line2": "2 66909  51.6310  83.8633 0003824 300.8028  59.2585 15.53202951  3445"}}, "geometry": {"type": "Point", "coordinates": [144.70982009792755, 49.00430048948606]}}, {"type": "Feature", "properties": {"norad_id": 66910, "name": "1998-067XW", "group": "stations", "lat": 51.1497903393076, "lon": 158.5859313137322, "alt_km": 402.7228077005475, "timestamp": "2025-12-25T11:37:43.168827+00:00", "meta": {"OBJECT_NAME": "1998-067XW", "OBJECT_ID": "1998-067XW", "EPOCH": "2025-12-24T15:11:47.467392", "MEAN_MOTION": 15.53149596, "ECCENTRICITY": 0.00038741, "INCLINATION": 51.6312, "RA_OF_ASC_NODE": 83.2108, "ARG_OF_PERICENTER": 273.1727, "MEAN_ANOMALY": 86.882, "EPHEMERIS_TYPE": 0, "CLASSIFICATION_TYPE": "U", "NORAD_CAT_ID": 66910, "ELEMENT_SET_NO": 999, "REV_AT_EPOCH": 346, "BSTAR": 0.0010215807, "MEAN_MOTION_DOT": 0.00065339, "MEAN_MOTION_DDOT": 0}, "tle": {"line1": "1 66910U 98067XW  25358.63318828  .00065339  00000+0  10216-2 0  9991", "line2": "2 66910  51.6312  83.2108 0003874 273.1727  86.8820 15.53149596  3468"}}, "geometry": {"type": "Point", "coordinates": [158.5859313137322, 51.1497903393076]}}]}